{
	"schools": [
		{
			"name": "Crim High School",
			"city": "Atlanta",
			"stateCode": "ga",
			"zipcode": "30317"
		},
		{
			"name": "Druid Hills High School",
			"city": "Atlanta",
			"stateCode": "ga",
			"zipcode": "30307"
		},
		{
			"name": "Lakeside High School",
			"city": "Atlanta",
			"stateCode": "ga",
			"zipcode": "30345"
		},
		{
			"name": "McNair High School",
			"city": "Atlanta",
			"stateCode": "ga",
			"zipcode": "30316"
		},
		{
			"name": "Booker T. Washington High School",
			"city": "Atlanta",
			"stateCode": "ga",
			"zipcode": "30314"
		},
		{
			"name": "Corretta Scott King Womens' Leadership Academy",
			"city": "Atlanta",
			"stateCode": "ga",
			"zipcode": "30318"
		},
		{
			"name": "Douglass High School",
			"city": "Atlanta",
			"stateCode": "ga",
			"zipcode": "30318"
		},
		{
			"name": "Early College High School At Carver",
			"city": "Atlanta",
			"stateCode": "ga",
			"zipcode": "30315"
		},
		{
			"name": "Grady High School",
			"city": "Atlanta",
			"stateCode": "ga",
			"zipcode": "30309"
		},
		{
			"name": "Kipp Atlanta Collegiate",
			"city": "Atlanta",
			"stateCode": "ga",
			"zipcode": "30314"
		},
		{
			"name": "Maynard H. Jackson- Jr. High School",
			"city": "Atlanta",
			"stateCode": "ga",
			"zipcode": "30316"
		},
		{
			"name": "Mays High School",
			"city": "Atlanta",
			"stateCode": "ga",
			"zipcode": "30331"
		},
		{
			"name": "North Atlanta High School",
			"city": "Atlanta",
			"stateCode": "ga",
			"zipcode": "30327"
		},
		{
			"name": "School of Health Sciences and Research At Carver",
			"city": "Atlanta",
			"stateCode": "ga",
			"zipcode": "30315"
		},
		{
			"name": "School of Technology At Carver",
			"city": "Atlanta",
			"stateCode": "ga",
			"zipcode": "30315"
		},
		{
			"name": "South Atlanta Law and Social Justice School",
			"city": "Atlanta",
			"stateCode": "ga",
			"zipcode": "30354"
		},
		{
			"name": "South Atlanta School of Computer Animation and Design",
			"city": "Atlanta",
			"stateCode": "ga",
			"zipcode": "30354"
		},
		{
			"name": "South Atlanta School of Health and Medical Science",
			"city": "Atlanta",
			"stateCode": "ga",
			"zipcode": "30354"
		},
		{
			"name": "The School of the Arts At Carver",
			"city": "Atlanta",
			"stateCode": "ga",
			"zipcode": "30315"
		},
		{
			"name": "Therrell School of Law- Government and Public Policy - C",
			"city": "Atlanta",
			"stateCode": "ga",
			"zipcode": "30311"
		},
		{
			"name": "Department of Human Resources",
			"city": "Atlanta",
			"stateCode": "ga",
			"zipcode": "30303"
		},
		{
			"name": "Hapeville Charter Career Academy",
			"city": "Atlanta",
			"stateCode": "ga",
			"zipcode": "30349"
		},
		{
			"name": "North Springs High School",
			"city": "Atlanta",
			"stateCode": "ga",
			"zipcode": "30328"
		},
		{
			"name": "Riverwood International Charter School",
			"city": "Atlanta",
			"stateCode": "ga",
			"zipcode": "30328"
		},
		{
			"name": "Westlake High School",
			"city": "Atlanta",
			"stateCode": "ga",
			"zipcode": "30331"
		},
		{
			"name": "Graduation Achievement Center Charter High School",
			"city": "Atlanta",
			"stateCode": "ga",
			"zipcode": "30303"
		},
		{
			"name": "Akins H S",
			"city": "Austin",
			"stateCode": "tx",
			"zipcode": "78748"
		},
		{
			"name": "Anderson H S",
			"city": "Austin",
			"stateCode": "tx",
			"zipcode": "78759"
		},
		{
			"name": "Austin H S",
			"city": "Austin",
			"stateCode": "tx",
			"zipcode": "78703"
		},
		{
			"name": "Bowie H S",
			"city": "Austin",
			"stateCode": "tx",
			"zipcode": "78749"
		},
		{
			"name": "Crockett H S",
			"city": "Austin",
			"stateCode": "tx",
			"zipcode": "78745"
		},
		{
			"name": "Eastside Memorial At the Johnston Campus",
			"city": "Austin",
			"stateCode": "tx",
			"zipcode": "78721"
		},
		{
			"name": "Garza Independence H S",
			"city": "Austin",
			"stateCode": "tx",
			"zipcode": "78702"
		},
		{
			"name": "Graduation Prep Academy Lanier",
			"city": "Austin",
			"stateCode": "tx",
			"zipcode": "78758"
		},
		{
			"name": "Graduation Prep Academy Travis",
			"city": "Austin",
			"stateCode": "tx",
			"zipcode": "78704"
		},
		{
			"name": "International H S",
			"city": "Austin",
			"stateCode": "tx",
			"zipcode": "78721"
		},
		{
			"name": "Lanier H S",
			"city": "Austin",
			"stateCode": "tx",
			"zipcode": "78758"
		},
		{
			"name": "Lasa H S",
			"city": "Austin",
			"stateCode": "tx",
			"zipcode": "78724"
		},
		{
			"name": "Lbj High School",
			"city": "Austin",
			"stateCode": "tx",
			"zipcode": "78724"
		},
		{
			"name": "McCallum H S",
			"city": "Austin",
			"stateCode": "tx",
			"zipcode": "78756"
		},
		{
			"name": "Reagan H S",
			"city": "Austin",
			"stateCode": "tx",
			"zipcode": "78752"
		},
		{
			"name": "Travis H S",
			"city": "Austin",
			"stateCode": "tx",
			"zipcode": "78704"
		},
		{
			"name": "Adult Transition Services",
			"city": "Austin",
			"stateCode": "tx",
			"zipcode": "78746"
		},
		{
			"name": "Westlake H S",
			"city": "Austin",
			"stateCode": "tx",
			"zipcode": "78746"
		},
		{
			"name": "Kipp Austin Collegiate",
			"city": "Austin",
			"stateCode": "tx",
			"zipcode": "78724"
		},
		{
			"name": "Lake Travis H S",
			"city": "Austin",
			"stateCode": "tx",
			"zipcode": "78738"
		},
		{
			"name": "Travis Co J J A E P",
			"city": "Austin",
			"stateCode": "tx",
			"zipcode": "78738"
		},
		{
			"name": "Vandegrift H S",
			"city": "Austin",
			"stateCode": "tx",
			"zipcode": "78750"
		},
		{
			"name": "John B Connally H S",
			"city": "Austin",
			"stateCode": "tx",
			"zipcode": "78753"
		},
		{
			"name": "McNeil H S",
			"city": "Austin",
			"stateCode": "tx",
			"zipcode": "78729"
		},
		{
			"name": "The Excel Center (For Adults)",
			"city": "Austin",
			"stateCode": "tx",
			"zipcode": "78753"
		},
		{
			"name": "Westwood H S",
			"city": "Austin",
			"stateCode": "tx",
			"zipcode": "78750"
		},
		{
			"name": "Conservation Corps of Long Beach Gateway Cities Charter",
			"city": "Long Beach",
			"stateCode": "ca",
			"zipcode": "90807"
		},
		{
			"name": "Beach High-Intensive Learning Program",
			"city": "Long Beach",
			"stateCode": "ca",
			"zipcode": "90815"
		},
		{
			"name": "Cabrillo High",
			"city": "Long Beach",
			"stateCode": "ca",
			"zipcode": "90810"
		},
		{
			"name": "Educational Partnership High",
			"city": "Long Beach",
			"stateCode": "ca",
			"zipcode": "90813"
		},
		{
			"name": "Ernest S. McBride Sr. High",
			"city": "Long Beach",
			"stateCode": "ca",
			"zipcode": "90808"
		},
		{
			"name": "Jordan High",
			"city": "Long Beach",
			"stateCode": "ca",
			"zipcode": "90805"
		},
		{
			"name": "Millikan High",
			"city": "Long Beach",
			"stateCode": "ca",
			"zipcode": "90815"
		},
		{
			"name": "Polytechnic High",
			"city": "Long Beach",
			"stateCode": "ca",
			"zipcode": "90813"
		},
		{
			"name": "Reid High",
			"city": "Long Beach",
			"stateCode": "ca",
			"zipcode": "90810"
		},
		{
			"name": "Renaissance High School For the Arts",
			"city": "Long Beach",
			"stateCode": "ca",
			"zipcode": "90813"
		},
		{
			"name": "Wilson High",
			"city": "Long Beach",
			"stateCode": "ca",
			"zipcode": "90804"
		},
		{
			"name": "Long Beach Unified School District Rop",
			"city": "Long Beach",
			"stateCode": "ca",
			"zipcode": "90815"
		},
		{
			"name": "Envision Academy For Arts & Technology",
			"city": "Oakland",
			"stateCode": "ca",
			"zipcode": "94612"
		},
		{
			"name": "Alternatives In Action",
			"city": "Oakland",
			"stateCode": "ca",
			"zipcode": "94621"
		},
		{
			"name": "Emery Secondary",
			"city": "Oakland",
			"stateCode": "ca",
			"zipcode": "94608"
		},
		{
			"name": "Leadership Public Schools - Hayward",
			"city": "Oakland",
			"stateCode": "ca",
			"zipcode": "94612"
		},
		{
			"name": "American Indian Public High",
			"city": "Oakland",
			"stateCode": "ca",
			"zipcode": "94604"
		},
		{
			"name": "Arise High",
			"city": "Oakland",
			"stateCode": "ca",
			"zipcode": "94601"
		},
		{
			"name": "Castlemont High",
			"city": "Oakland",
			"stateCode": "ca",
			"zipcode": "94605"
		},
		{
			"name": "Civicorps Corpsmember Academy",
			"city": "Oakland",
			"stateCode": "ca",
			"zipcode": "94607"
		},
		{
			"name": "Community Day",
			"city": "Oakland",
			"stateCode": "ca",
			"zipcode": "94619"
		},
		{
			"name": "Dewey Academy",
			"city": "Oakland",
			"stateCode": "ca",
			"zipcode": "94606"
		},
		{
			"name": "Fremont High",
			"city": "Oakland",
			"stateCode": "ca",
			"zipcode": "94601"
		},
		{
			"name": "Gateway To College At Laney College",
			"city": "Oakland",
			"stateCode": "ca",
			"zipcode": "94607"
		},
		{
			"name": "Lighthouse Community Charter High",
			"city": "Oakland",
			"stateCode": "ca",
			"zipcode": "94621"
		},
		{
			"name": "Lps Oakland R & D Campus",
			"city": "Oakland",
			"stateCode": "ca",
			"zipcode": "94612"
		},
		{
			"name": "McClymonds High",
			"city": "Oakland",
			"stateCode": "ca",
			"zipcode": "94607"
		},
		{
			"name": "Metwest High",
			"city": "Oakland",
			"stateCode": "ca",
			"zipcode": "94606"
		},
		{
			"name": "Oakland Charter High",
			"city": "Oakland",
			"stateCode": "ca",
			"zipcode": "94607"
		},
		{
			"name": "Oakland High",
			"city": "Oakland",
			"stateCode": "ca",
			"zipcode": "94610"
		},
		{
			"name": "Oakland International High",
			"city": "Oakland",
			"stateCode": "ca",
			"zipcode": "94609"
		},
		{
			"name": "Oakland Technical High",
			"city": "Oakland",
			"stateCode": "ca",
			"zipcode": "94611"
		},
		{
			"name": "Oakland Unity High",
			"city": "Oakland",
			"stateCode": "ca",
			"zipcode": "94605"
		},
		{
			"name": "Ralph J. Bunche High",
			"city": "Oakland",
			"stateCode": "ca",
			"zipcode": "94607"
		},
		{
			"name": "Rudsdale Continuation",
			"city": "Oakland",
			"stateCode": "ca",
			"zipcode": "94605"
		},
		{
			"name": "Skyline High",
			"city": "Oakland",
			"stateCode": "ca",
			"zipcode": "94619"
		},
		{
			"name": "Street Academy (Alternative)",
			"city": "Oakland",
			"stateCode": "ca",
			"zipcode": "94609"
		},
		{
			"name": "Leadership Public Schools: Richmond",
			"city": "Oakland",
			"stateCode": "ca",
			"zipcode": "94612"
		},
		{
			"name": "Leadership Public Schools - San Jose",
			"city": "Oakland",
			"stateCode": "ca",
			"zipcode": "94612"
		},
		{
			"name": "Glencliff High School",
			"city": "Nashville",
			"stateCode": "tn",
			"zipcode": "37211"
		},
		{
			"name": "Hillsboro High",
			"city": "Nashville",
			"stateCode": "tn",
			"zipcode": "37215"
		},
		{
			"name": "Hillwood High",
			"city": "Nashville",
			"stateCode": "tn",
			"zipcode": "37205"
		},
		{
			"name": "Hume - Fogg High",
			"city": "Nashville",
			"stateCode": "tn",
			"zipcode": "37203"
		},
		{
			"name": "Hunters Lane High",
			"city": "Nashville",
			"stateCode": "tn",
			"zipcode": "37207"
		},
		{
			"name": "John Overton High",
			"city": "Nashville",
			"stateCode": "tn",
			"zipcode": "37220"
		},
		{
			"name": "Johnson Alternative Learning Center",
			"city": "Nashville",
			"stateCode": "tn",
			"zipcode": "37207"
		},
		{
			"name": "K I P P Nashville Collegiate High School",
			"city": "Nashville",
			"stateCode": "tn",
			"zipcode": "37207"
		},
		{
			"name": "Maplewood High",
			"city": "Nashville",
			"stateCode": "tn",
			"zipcode": "37216"
		},
		{
			"name": "Middle College High",
			"city": "Nashville",
			"stateCode": "tn",
			"zipcode": "37209"
		},
		{
			"name": "Nashville Big Picture High School",
			"city": "Nashville",
			"stateCode": "tn",
			"zipcode": "37209"
		},
		{
			"name": "Nashville School of the Arts",
			"city": "Nashville",
			"stateCode": "tn",
			"zipcode": "37210"
		},
		{
			"name": "Pearl-Cohn High",
			"city": "Nashville",
			"stateCode": "tn",
			"zipcode": "37208"
		},
		{
			"name": "Stratford High",
			"city": "Nashville",
			"stateCode": "tn",
			"zipcode": "37216"
		},
		{
			"name": "The Academy At Old Cockrill",
			"city": "Nashville",
			"stateCode": "tn",
			"zipcode": "37209"
		},
		{
			"name": "The Academy At Opry Mills",
			"city": "Nashville",
			"stateCode": "tn",
			"zipcode": "37214"
		},
		{
			"name": "The Cohn Learning Center",
			"city": "Nashville",
			"stateCode": "tn",
			"zipcode": "37209"
		},
		{
			"name": "Transitions At Bass",
			"city": "Nashville",
			"stateCode": "tn",
			"zipcode": "37209"
		},
		{
			"name": "W. A. Bass Adult Program",
			"city": "Nashville",
			"stateCode": "tn",
			"zipcode": "37209"
		},
		{
			"name": "W.A. Bass Alternative Learning Center",
			"city": "Nashville",
			"stateCode": "tn",
			"zipcode": "37209"
		}
	]
}